start=new Date('2022-04-25T00:00:00.000Z').valueOf();
sats=[{"OBJECT_TYPE":"PAYLOAD","SEMIMAJOR_AXIS":"6925.359","RA_OF_ASC_NODE":"80.3826","TLE_LINE1":"1 44741U 19074AE  22114.33558530  .00000463  00000-0  49978-4 0  9997","FILE":"3414186","TIME_SYSTEM":"UTC","PERIOD":"95.592","SITE":"AFETR","MEAN_MOTION":"15.06396574","ECCENTRICITY":"0.00018120","OBJECT_ID":"2019-074AE","TLE_LINE2":"2 44741  53.0552  80.3826 0001812  53.3010 306.8146 15.06396574135141","LAUNCH_DATE":"2019-11-11","EPHEMERIS_TYPE":"0","REV_AT_EPOCH":"13514","DECAY_DATE":null,"PERIAPSIS":"545.969","ELEMENT_SET_NO":"999","MEAN_MOTION_DDOT":"0.0000000000000","REF_FRAME":"TEME","CENTER_NAME":"EARTH","RCS_SIZE":"LARGE","ARG_OF_PERICENTER":"53.3010","NORAD_CAT_ID":"44741","BSTAR":"0.00004997800000","GP_ID":"201933781","COUNTRY_CODE":"US","MEAN_ANOMALY":"306.8146","INCLINATION":"53.0552","CLASSIFICATION_TYPE":"U","MEAN_MOTION_DOT":"0.00000463","APOAPSIS":"548.479","EPOCH":"2022-04-24T08:03:14.569920","MEAN_ELEMENT_THEORY":"SGP4","OBJECT_NAME":"STARLINK-1036"},{"TIME_SYSTEM":"UTC","PERIOD":"95.150","SEMIMAJOR_AXIS":"6903.958","OBJECT_TYPE":"PAYLOAD","TLE_LINE1":"1 44742U 19074AF  22114.57441814  .00028814  00000-0  16053-2 0  9996","FILE":"3414186","RA_OF_ASC_NODE":"66.9385","OBJECT_ID":"2019-074AF","TLE_LINE2":"2 44742  52.9955  66.9385 0001998  62.0776 298.0417 15.13406328135317","REV_AT_EPOCH":"13531","DECAY_DATE":null,"LAUNCH_DATE":"2019-11-11","EPHEMERIS_TYPE":"0","SITE":"AFETR","MEAN_MOTION":"15.13406328","ECCENTRICITY":"0.00019980","RCS_SIZE":"LARGE","CENTER_NAME":"EARTH","REF_FRAME":"TEME","BSTAR":"0.00160530000000","GP_ID":"201933532","ARG_OF_PERICENTER":"62.0776","NORAD_CAT_ID":"44742","ELEMENT_SET_NO":"999","MEAN_MOTION_DDOT":"0.0000000000000","PERIAPSIS":"524.444","APOAPSIS":"527.202","MEAN_MOTION_DOT":"0.00028814","OBJECT_NAME":"STARLINK-1037","MEAN_ELEMENT_THEORY":"SGP4","EPOCH":"2022-04-24T13:47:09.727296","INCLINATION":"52.9955","COUNTRY_CODE":"US","MEAN_ANOMALY":"298.0417","CLASSIFICATION_TYPE":"U"},{"TIME_SYSTEM":"UTC","PERIOD":"95.592","OBJECT_TYPE":"PAYLOAD","SEMIMAJOR_AXIS":"6925.344","RA_OF_ASC_NODE":"98.9728","FILE":"3414375","TLE_LINE1":"1 44743U 19074AG  22114.65073243  .00000335  00000-0  41409-4 0  9996","TLE_LINE2":"2 44743  53.0547  98.9728 0001973  53.7459 306.3712 15.06401426135082","OBJECT_ID":"2019-074AG","LAUNCH_DATE":"2019-11-11","EPHEMERIS_TYPE":"0","DECAY_DATE":null,"REV_AT_EPOCH":"13508","MEAN_MOTION":"15.06401426","SITE":"AFETR","ECCENTRICITY":"0.00019730","REF_FRAME":"TEME","RCS_SIZE":"LARGE","CENTER_NAME":"EARTH","NORAD_CAT_ID":"44743","ARG_OF_PERICENTER":"53.7459","GP_ID":"201942893","BSTAR":"0.00004140900000","PERIAPSIS":"545.843","ELEMENT_SET_NO":"999","MEAN_MOTION_DDOT":"0.0000000000000","MEAN_MOTION_DOT":"0.00000335","APOAPSIS":"548.576","MEAN_ELEMENT_THEORY":"SGP4","EPOCH":"2022-04-24T15:37:03.281952","OBJECT_NAME":"STARLINK-1038","COUNTRY_CODE":"US","MEAN_ANOMALY":"306.3712","INCLINATION":"53.0547","CLASSIFICATION_TYPE":"U"},{"TLE_LINE1":"1 44744U 19074AH  22114.39641106 -.00000605  00000-0 -21705-4 0  9996","FILE":"3414186","RA_OF_ASC_NODE":"100.1124","SEMIMAJOR_AXIS":"6925.366","OBJECT_TYPE":"PAYLOAD","PERIOD":"95.592","TIME_SYSTEM":"UTC","ECCENTRICITY":"0.00016310","SITE":"AFETR","MEAN_MOTION":"15.06394458","REV_AT_EPOCH":"13487","DECAY_DATE":null,"LAUNCH_DATE":"2019-11-11","EPHEMERIS_TYPE":"0","OBJECT_ID":"2019-074AH","TLE_LINE2":"2 44744  53.0536 100.1124 0001631  50.0289 310.0843 15.06394458134878","MEAN_MOTION_DDOT":"0.0000000000000","ELEMENT_SET_NO":"999","PERIAPSIS":"546.101","BSTAR":"-0.00002170500000","GP_ID":"201933030","ARG_OF_PERICENTER":"50.0289","NORAD_CAT_ID":"44744","CENTER_NAME":"EARTH","RCS_SIZE":"LARGE","REF_FRAME":"TEME","CLASSIFICATION_TYPE":"U","INCLINATION":"53.0536","COUNTRY_CODE":"US","MEAN_ANOMALY":"310.0843","OBJECT_NAME":"STARLINK-1039","MEAN_ELEMENT_THEORY":"SGP4","EPOCH":"2022-04-24T09:30:49.915584","APOAPSIS":"548.360","MEAN_MOTION_DOT":"-0.00000605"},{"INCLINATION":"53.0556","MEAN_ANOMALY":"313.6149","COUNTRY_CODE":"US","CLASSIFICATION_TYPE":"U","APOAPSIS":"548.665","MEAN_MOTION_DOT":"-0.00000466","OBJECT_NAME":"STARLINK-1041","MEAN_ELEMENT_THEORY":"SGP4","EPOCH":"2022-04-24T15:31:45.628032","MEAN_MOTION_DDOT":"0.0000000000000","ELEMENT_SET_NO":"999","PERIAPSIS":"545.825","CENTER_NAME":"EARTH","RCS_SIZE":"LARGE","REF_FRAME":"TEME","GP_ID":"201943393","BSTAR":"-0.00001236900000","NORAD_CAT_ID":"44746","ARG_OF_PERICENTER":"46.5010","MEAN_MOTION":"15.06389717","SITE":"AFETR","ECCENTRICITY":"0.00020500","TLE_LINE2":"2 44746  53.0556  98.9978 0002050  46.5010 313.6149 15.06389717135085","OBJECT_ID":"2019-074AK","DECAY_DATE":null,"REV_AT_EPOCH":"13508","EPHEMERIS_TYPE":"0","LAUNCH_DATE":"2019-11-11","SEMIMAJOR_AXIS":"6925.380","OBJECT_TYPE":"PAYLOAD","FILE":"3414375","TLE_LINE1":"1 44746U 19074AK  22114.64705588 -.00000466  00000-0 -12369-4 0  9992","RA_OF_ASC_NODE":"98.9978","TIME_SYSTEM":"UTC","PERIOD":"95.593"},{"PERIAPSIS":"546.017","MEAN_MOTION_DDOT":"0.0000000000000","ELEMENT_SET_NO":"999","REF_FRAME":"TEME","RCS_SIZE":"LARGE","CENTER_NAME":"EARTH","ARG_OF_PERICENTER":"57.0527","NORAD_CAT_ID":"44747","GP_ID":"201934032","BSTAR":"0.00016137000000","COUNTRY_CODE":"US","MEAN_ANOMALY":"303.0626","INCLINATION":"53.0552","CLASSIFICATION_TYPE":"U","MEAN_MOTION_DOT":"0.00002123","APOAPSIS":"548.383","MEAN_ELEMENT_THEORY":"SGP4","EPOCH":"2022-04-24T08:16:30.249984","OBJECT_NAME":"STARLINK-1042","OBJECT_TYPE":"PAYLOAD","SEMIMAJOR_AXIS":"6925.335","RA_OF_ASC_NODE":"100.3504","TLE_LINE1":"1 44747U 19074AL  22114.34479456  .00002123  00000-0  16137-3 0  9998","FILE":"3414186","TIME_SYSTEM":"UTC","PERIOD":"95.592","SITE":"AFETR","MEAN_MOTION":"15.06404527","ECCENTRICITY":"0.00017080","OBJECT_ID":"2019-074AL","TLE_LINE2":"2 44747  53.0552 100.3504 0001708  57.0527 303.0626 15.06404527134870","EPHEMERIS_TYPE":"0","LAUNCH_DATE":"2019-11-11","REV_AT_EPOCH":"13487","DECAY_DATE":null},{"MEAN_MOTION_DOT":"-0.00000162","APOAPSIS":"548.500","MEAN_ELEMENT_THEORY":"SGP4","EPOCH":"2022-04-24T08:58:58.470240","OBJECT_NAME":"STARLINK-1043","MEAN_ANOMALY":"302.3114","COUNTRY_CODE":"US","INCLINATION":"53.0542","CLASSIFICATION_TYPE":"U","REF_FRAME":"TEME","RCS_SIZE":"LARGE","CENTER_NAME":"EARTH","NORAD_CAT_ID":"44748","ARG_OF_PERICENTER":"57.8055","GP_ID":"201932281","BSTAR":"0.00000806520000","PERIAPSIS":"545.928","MEAN_MOTION_DDOT":"0.0000000000000","ELEMENT_SET_NO":"999","TLE_LINE2":"2 44748  53.0542 100.2100 0001857  57.8055 302.3114 15.06399979134878","OBJECT_ID":"2019-074AM","LAUNCH_DATE":"2019-11-11","EPHEMERIS_TYPE":"0","DECAY_DATE":null,"REV_AT_EPOCH":"13487","MEAN_MOTION":"15.06399979","SITE":"AFETR","ECCENTRICITY":"0.00018570","TIME_SYSTEM":"UTC","PERIOD":"95.592","OBJECT_TYPE":"PAYLOAD","SEMIMAJOR_AXIS":"6925.349","RA_OF_ASC_NODE":"100.2100","FILE":"3414186","TLE_LINE1":"1 44748U 19074AM  22114.37428785 -.00000162  00000-0  80652-5 0  9998"},{"TIME_SYSTEM":"UTC","PERIOD":"95.592","SEMIMAJOR_AXIS":"6925.354","OBJECT_TYPE":"PAYLOAD","FILE":"3414186","TLE_LINE1":"1 44751U 19074AQ  22114.25634283 -.00000236  00000-0  30839-5 0  9995","RA_OF_ASC_NODE":"100.7495","TLE_LINE2":"2 44751  53.0541 100.7495 0002024  54.5111 305.6067 15.06398088134858","OBJECT_ID":"2019-074AQ","DECAY_DATE":null,"REV_AT_EPOCH":"13485","LAUNCH_DATE":"2019-11-11","EPHEMERIS_TYPE":"0","MEAN_MOTION":"15.06398088","SITE":"AFETR","ECCENTRICITY":"0.00020240","RCS_SIZE":"LARGE","CENTER_NAME":"EARTH","REF_FRAME":"TEME","BSTAR":"0.00000308390000","GP_ID":"201932531","NORAD_CAT_ID":"44751","ARG_OF_PERICENTER":"54.5111","MEAN_MOTION_DDOT":"0.0000000000000","ELEMENT_SET_NO":"999","PERIAPSIS":"545.818","APOAPSIS":"548.621","MEAN_MOTION_DOT":"-0.00000236","OBJECT_NAME":"STARLINK-1046","EPOCH":"2022-04-24T06:09:08.020512","MEAN_ELEMENT_THEORY":"SGP4","INCLINATION":"53.0541","COUNTRY_CODE":"US","MEAN_ANOMALY":"305.6067","CLASSIFICATION_TYPE":"U"},{"TIME_SYSTEM":"UTC","PERIOD":"95.592","SEMIMAJOR_AXIS":"6925.356","OBJECT_TYPE":"PAYLOAD","FILE":"3414186","TLE_LINE1":"1 44752U 19074AR  22114.27661557  .00000590  00000-0  58550-4 0  9993","RA_OF_ASC_NODE":"80.6582","TLE_LINE2":"2 44752  53.0566  80.6582 0002187  48.1235 311.9940 15.06397653135134","OBJECT_ID":"2019-074AR","DECAY_DATE":null,"REV_AT_EPOCH":"13513","LAUNCH_DATE":"2019-11-11","EPHEMERIS_TYPE":"0","MEAN_MOTION":"15.06397653","SITE":"AFETR","ECCENTRICITY":"0.00021870","CENTER_NAME":"EARTH","RCS_SIZE":"LARGE","REF_FRAME":"TEME","GP_ID":"201933782","BSTAR":"0.00005855000000","ARG_OF_PERICENTER":"48.1235","NORAD_CAT_ID":"44752","ELEMENT_SET_NO":"999","MEAN_MOTION_DDOT":"0.0000000000000","PERIAPSIS":"545.706","APOAPSIS":"548.735","MEAN_MOTION_DOT":"0.00000590","OBJECT_NAME":"STARLINK-1047","EPOCH":"2022-04-24T06:38:19.585248","MEAN_ELEMENT_THEORY":"SGP4","INCLINATION":"53.0566","COUNTRY_CODE":"US","MEAN_ANOMALY":"311.9940","CLASSIFICATION_TYPE":"U"},{"SITE":"AFETR","MEAN_MOTION":"15.06402715","ECCENTRICITY":"0.00014610","OBJECT_ID":"2019-074AS","TLE_LINE2":"2 44753  53.0571  59.4340 0001461  67.5109 292.6035 15.06402715135457","LAUNCH_DATE":"2019-11-11","EPHEMERIS_TYPE":"0","REV_AT_EPOCH":"13545","DECAY_DATE":null,"OBJECT_TYPE":"PAYLOAD","SEMIMAJOR_AXIS":"6925.340","RA_OF_ASC_NODE":"59.4340","TLE_LINE1":"1 44753U 19074AS  22114.54752215  .00000342  00000-0  41880-4 0  9999","FILE":"3414186","TIME_SYSTEM":"UTC","PERIOD":"95.592","MEAN_ANOMALY":"292.6035","COUNTRY_CODE":"US","INCLINATION":"53.0571","CLASSIFICATION_TYPE":"U","MEAN_MOTION_DOT":"0.00000342","APOAPSIS":"548.217","EPOCH":"2022-04-24T13:08:25.913760","MEAN_ELEMENT_THEORY":"SGP4","OBJECT_NAME":"STARLINK-1048","PERIAPSIS":"546.193","MEAN_MOTION_DDOT":"0.0000000000000","ELEMENT_SET_NO":"999","REF_FRAME":"TEME","RCS_SIZE":"LARGE","CENTER_NAME":"EARTH","NORAD_CAT_ID":"44753","ARG_OF_PERICENTER":"67.5109","BSTAR":"0.00004188000000","GP_ID":"201933533"}];
